{"type": "FeatureCollection", "features": [ {"type": "Feature", "properties": {"norad_id": 43262, "name": "GAOFEN-1 04", "group": "resource", "lat": 47.970605815214924, "lon": 32.471155949619956, "alt_km": 635.4690959703694, "timestamp": "2025-12-09T16:56:36.237765+00:00", "meta": {"OBJECT_NAME": "GAOFEN-1 04", "OBJECT_ID": "2018-031D", "EPOCH": "2025-12-09T11:50:40.123680", "MEAN_MOTION": 14.76440118, "ECCENTRICITY": 0.0001199, "INCLINATION": 98.0807, "RA_OF_ASC_NODE": 41.3277, "ARG_OF_PERICENTER": 54.6339, "MEAN_ANOMALY": 305.4983, "EPHEMERIS_TYPE": 0, "CLASSIFICATION_TYPE": "U", "NORAD_CAT_ID": 43262, "ELEMENT_SET_NO": 999, "REV_AT_EPOCH": 41469, "BSTAR": 0.00023184, "MEAN_MOTION_DOT": 1.561e-05, "MEAN_MOTION_DDOT": 0}, "tle": {"line1": "1 43262U 18031D   25343.49351995  .00001561  00000+0  23184-3 0  9995", "line2": "2 43262  98.0807  41.3277 0001199  54.6339 305.4983 14.76440118414697"}}, "geometry": {"type": "Point", "coordinates": [32.471155949619956, 47.970605815214924]}}, {"type": "Feature", "properties": {"norad_id": 43437, "name": "SENTINEL-3B", "group": "resource", "lat": 36.7137769434457, "lon": 42.43375840574621, "alt_km": 799.588415664769, "timestamp": "2025-12-09T16:56:36.237775+00:00", "meta": {"OBJECT_NAME": "SENTINEL-3B", "OBJECT_ID": "2018-039A", "EPOCH": "2025-12-09T10:02:13.738848", "MEAN_MOTION": 14.26741127, "ECCENTRICITY": 0.0001551, "INCLINATION": 98.627, "RA_OF_ASC_NODE": 48.6509, "ARG_OF_PERICENTER": 106.2359, "MEAN_ANOMALY": 253.8992, "EPHEMERIS_TYPE": 0, "CLASSIFICATION_TYPE": "U", "NORAD_CAT_ID": 43437, "ELEMENT_SET_NO": 999, "REV_AT_EPOCH": 39706, "BSTAR": 0.00013773, "MEAN_MOTION_DOT": 2.9e-06, "MEAN_MOTION_DDOT": 0}, "tle": {"line1": "1 43437U 18039A   25343.41821457  .00000290  00000+0  13773-3 0  9995", "line2": "2 43437  98.6270  48.6509 0001551 106.2359 253.8992 14.26741127397063"}}, "geometry": {"type": "Point", "coordinates": [42.43375840574621, 36.7137769434457]}}, {"type": "Feature", "properties": {"norad_id": 43461, "name": "GAOFEN-5 01", "group": "resource", "lat": 18.909825158997098, "lon": -56.29258268735557, "alt_km": 691.3522976566392, "timestamp": "2025-12-09T16:56:36.237788+00:00", "meta": {"OBJECT_NAME": "GAOFEN-5 01", "OBJECT_ID": "2018-043A", "EPOCH": "2025-12-09T11:55:23.036160", "MEAN_MOTION": 14.6040512, "ECCENTRICITY": 0.0001176, "INCLINATION": 98.4321, "RA_OF_ASC_NODE": 306.4074, "ARG_OF_PERICENTER": 352.7222, "MEAN_ANOMALY": 7.396, "EPHEMERIS_TYPE": 0, "CLASSIFICATION_TYPE": "U", "NORAD_CAT_ID": 43461, "ELEMENT_SET_NO": 999, "REV_AT_EPOCH": 40400, "BSTAR": 0.0002101, "MEAN_MOTION_DOT": 9.68e-06, "MEAN_MOTION_DDOT": 0}, "tle": {"line1": "1 43461U 18043A   25343.49679440  .00000968  00000+0  21010-3 0  9993", "line2": "2 43461  98.4321 306.4074 0001176 352.7222   7.3960 14.60405120404005"}}, "geometry": {"type": "Point", "coordinates": [-56.29258268735557, 18.909825158997098]}}, {"type": "Feature", "properties": {"norad_id": 43484, "name": "GAOFEN-6", "group": "resource", "lat": -18.718079830089213, "lon": -134.58839844699528, "alt_km": 650.8684246601633, "timestamp": "2025-12-09T16:56:36.237799+00:00", "meta": {"OBJECT_NAME": "GAOFEN-6", "OBJECT_ID": "2018-048A", "EPOCH": "2025-12-09T12:47:39.562656", "MEAN_MOTION": 14.7655644, "ECCENTRICITY": 0.00133, "INCLINATION": 97.8031, "RA_OF_ASC_NODE": 47.9077, "ARG_OF_PERICENTER": 72.7571, "MEAN_ANOMALY": 287.5093, "EPHEMERIS_TYPE": 0, "CLASSIFICATION_TYPE": "U", "NORAD_CAT_ID": 43484, "ELEMENT_SET_NO": 999, "REV_AT_EPOCH": 40540, "BSTAR": 0.00016673, "MEAN_MOTION_DOT": 1.115e-05, "MEAN_MOTION_DDOT": 0}, "tle": {"line1": "1 43484U 18048A   25343.53309679  .00001115  00000+0  16673-3 0  9996", "line2": "2 43484  97.8031  47.9077 0013300  72.7571 287.5093 14.76556440405402"}}, "geometry": {"type": "Point", "coordinates": [-134.58839844699528, -18.718079830089213]}}, {"type": "Feature", "properties": {"norad_id": 43585, "name": "GAOFEN-11 01", "group": "resource", "lat": -65.30202756651609, "lon": 62.5188621571345, "alt_km": 424.0724007563931, "timestamp": "2025-12-09T16:56:36.237809+00:00", "meta": {"OBJECT_NAME": "GAOFEN-11 01", "OBJECT_ID": "2018-063A", "EPOCH": "2025-12-09T12:34:40.778976", "MEAN_MOTION": 15.4907929, "ECCENTRICITY": 0.0004644, "INCLINATION": 97.1556, "RA_OF_ASC_NODE": 46.4856, "ARG_OF_PERICENTER": 329.3295, "MEAN_ANOMALY": 30.7684, "EPHEMERIS_TYPE": 0, "CLASSIFICATION_TYPE": "U", "NORAD_CAT_ID": 43585, "ELEMENT_SET_NO": 999, "REV_AT_EPOCH": 41092, "BSTAR": 0.00036699, "MEAN_MOTION_DOT": 0.00019852, "MEAN_MOTION_DDOT": 0}, "tle": {"line1": "1 43585U 18063A   25343.52408309  .00019852  00000+0  36699-3 0  9991", "line2": "2 43585  97.1556  46.4856 0004644 329.3295  30.7684 15.49079290410924"}}, "geometry": {"type": "Point", "coordinates": [62.5188621571345, -65.30202756651609]}}, {"type": "Feature", "properties": {"norad_id": 43613, "name": "ICESAT-2", "group": "resource", "lat": -77.88311017796164, "lon": 50.529939222766615, "alt_km": 488.73405768431167, "timestamp": "2025-12-09T16:56:36.237820+00:00", "meta": {"OBJECT_NAME": "ICESAT-2", "OBJECT_ID": "2018-070A", "EPOCH": "2025-12-09T11:06:11.802240", "MEAN_MOTION": 15.28265965, "ECCENTRICITY": 0.000227, "INCLINATION": 92.0044, "RA_OF_ASC_NODE": 239.8529, "ARG_OF_PERICENTER": 157.4455, "MEAN_ANOMALY": 202.6894, "EPHEMERIS_TYPE": 0, "CLASSIFICATION_TYPE": "U", "NORAD_CAT_ID": 43613, "ELEMENT_SET_NO": 999, "REV_AT_EPOCH": 40348, "BSTAR": 0.00063791, "MEAN_MOTION_DOT": 0.00017576, "MEAN_MOTION_DDOT": 0}, "tle": {"line1": "1 43613U 18070A   25343.46263660  .00017576  00000+0  63791-3 0  9997", "line2": "2 43613  92.0044 239.8529 0002270 157.4455 202.6894 15.28265965403487"}}, "geometry": {"type": "Point", "coordinates": [50.529939222766615, -77.88311017796164]}}, {"type": "Feature", "properties": {"norad_id": 43719, "name": "HYSIS", "group": "resource", "lat": -31.042572813754592, "lon": -138.16310813438125, "alt_km": 640.6659387095224, "timestamp": "2025-12-09T16:56:36.237830+00:00", "meta": {"OBJECT_NAME": "HYSIS", "OBJECT_ID": "2018-096A", "EPOCH": "2025-12-09T11:07:06.858048", "MEAN_MOTION": 14.78630231, "ECCENTRICITY": 0.000152, "INCLINATION": 98.0096, "RA_OF_ASC_NODE": 46.4569, "ARG_OF_PERICENTER": 55.7631, "MEAN_ANOMALY": 304.3724, "EPHEMERIS_TYPE": 0, "CLASSIFICATION_TYPE": "U", "NORAD_CAT_ID": 43719, "ELEMENT_SET_NO": 999, "REV_AT_EPOCH": 37938, "BSTAR": 0.00025683, "MEAN_MOTION_DOT": 1.829e-05, "MEAN_MOTION_DDOT": 0}, "tle": {"line1": "1 43719U 18096A   25343.46327382  .00001829  00000+0  25683-3 0  9996", "line2": "2 43719  98.0096  46.4569 0001520  55.7631 304.3724 14.78630231379385"}}, "geometry": {"type": "Point", "coordinates": [-138.16310813438125, -31.042572813754592]}}, {"type": "Feature", "properties": {"norad_id": 43783, "name": "KAZSTSAT", "group": "resource", "lat": -41.3707961744255, "lon": -167.6016040065889, "alt_km": 577.7773141991147, "timestamp": "2025-12-09T16:56:36.237840+00:00", "meta": {"OBJECT_NAME": "KAZSTSAT", "OBJECT_ID": "2018-099AB", "EPOCH": "2025-12-09T01:32:30.411168", "MEAN_MOTION": 14.99334862, "ECCENTRICITY": 0.00061035, "INCLINATION": 97.4556, "RA_OF_ASC_NODE": 18.407, "ARG_OF_PERICENTER": 345.3373, "MEAN_ANOMALY": 14.7673, "EPHEMERIS_TYPE": 0, "CLASSIFICATION_TYPE": "U", "NORAD_CAT_ID": 43783, "ELEMENT_SET_NO": 999, "REV_AT_EPOCH": 38281, "BSTAR": 0.00018723562, "MEAN_MOTION_DOT": 2.233e-05, "MEAN_MOTION_DDOT": 0}, "tle": {"line1": "1 43783U 18099AB  25343.06424087  .00002233  00000+0  18724-3 0  9994", "line2": "2 43783  97.4556  18.4070 0006103 345.3373  14.7673 14.99334862382810"}}, "geometry": {"type": "Point", "coordinates": [-167.6016040065889, -41.3707961744255]}}, {"type": "Feature", "properties": {"norad_id": 43831, "name": "SAUDISAT 5A", "group": "resource", "lat": -12.248232812299301, "lon": 45.557834562787896, "alt_km": 494.61051166824836, "timestamp": "2025-12-09T16:56:36.237871+00:00", "meta": {"OBJECT_NAME": "SAUDISAT 5A", "OBJECT_ID": "2018-102A", "EPOCH": "2025-12-09T12:16:29.663616", "MEAN_MOTION": 15.25594114, "ECCENTRICITY": 0.0011831, "INCLINATION": 97.3352, "RA_OF_ASC_NODE": 43.7646, "ARG_OF_PERICENTER": 86.1376, "MEAN_ANOMALY": 274.1215, "EPHEMERIS_TYPE": 0, "CLASSIFICATION_TYPE": "U", "NORAD_CAT_ID": 43831, "ELEMENT_SET_NO": 999, "REV_AT_EPOCH": 38673, "BSTAR": 0.00037003, "MEAN_MOTION_DOT": 9.349e-05, "MEAN_MOTION_DDOT": 0}, "tle": {"line1": "1 43831U 18102A   25343.51145444  .00009349  00000+0  37003-3 0  9996", "line2": "2 43831  97.3352  43.7646 0011831  86.1376 274.1215 15.25594114386731"}}, "geometry": {"type": "Point", "coordinates": [45.557834562787896, -12.248232812299301]}}, {"type": "Feature", "properties": {"norad_id": 43833, "name": "SAUDISAT 5B", "group": "resource", "lat": 35.750293352589466, "lon": 41.36047707939042, "alt_km": 480.2151182294301, "timestamp": "2025-12-09T16:56:36.237882+00:00", "meta": {"OBJECT_NAME": "SAUDISAT 5B", "OBJECT_ID": "2018-102C", "EPOCH": "2025-12-09T12:03:52.098912", "MEAN_MOTION": 15.25948182, "ECCENTRICITY": 0.0012528, "INCLINATION": 97.3447, "RA_OF_ASC_NODE": 46.4888, "ARG_OF_PERICENTER": 88.5066, "MEAN_ANOMALY": 271.7608, "EPHEMERIS_TYPE": 0, "CLASSIFICATION_TYPE": "U", "NORAD_CAT_ID": 43833, "ELEMENT_SET_NO": 999, "REV_AT_EPOCH": 38684, "BSTAR": 0.00033977, "MEAN_MOTION_DOT": 8.672e-05, "MEAN_MOTION_DDOT": 0}, "tle": {"line1": "1 43833U 18102C   25343.50268633  .00008672  00000+0  33977-3 0  9997", "line2": "2 43833  97.3447  46.4888 0012528  88.5066 271.7608 15.25948182386841"}}, "geometry": {"type": "Point", "coordinates": [41.36047707939042, 35.750293352589466]}}]}